CYGFM03                 
1 41891U 16078H   26079.23717197  .00019045  00000+0  27098-3 0  9993
2 41891  34.9403 101.6440 0004286  53.2486 306.8631 15.55389975515096
FENGYUN 3D              
1 43010U 17072A   26079.27801602  .00000109  00000+0  73333-4 0  9997
2 43010  99.0045  52.1332 0001049 348.5688  11.5464 14.19717993432370
NOAA 20 (JPSS-1)        
1 43013U 17073A   26079.26019189  .00000042  00000+0  40887-4 0  9995
2 43013  98.7705  19.5430 0001628 123.9518 236.1813 14.19538640431853
GOES 17                 
1 43226U 18022A   26079.18447538 -.00000179  00000+0  00000+0 0  9990
2 43226   0.7075  87.1504 0001653 230.6642 196.8151  1.00271472 29535
FENGYUN 2H              
1 43491U 18050A   26079.17455351 -.00000123  00000+0  00000+0 0  9995
2 43491   2.7990  80.1538 0001471 167.6324  71.8591  1.00271397 28547
METOP-C                 
1 43689U 18087A   26079.23878046  .00000092  00000+0  61979-4 0  9992
2 43689  98.6743 140.4316 0002130  85.4004 274.7417 14.21500238382196
GEO-KOMPSAT-2A          
1 43823U 18100A   26078.44288469 -.00000342  00000+0  00000+0 0  9996
2 43823   0.0490   6.8934 0001457  44.8852  52.8725  1.00267281 26737
METEOR-M2 2             
1 44387U 19038A   26079.24196197  .00000070  00000+0  50190-4 0  9995
2 44387  98.9097  65.2397 0000328 330.1784  29.9376 14.24337832348638
ARKTIKA-M 1             
1 47719U 21016A   26078.27172550 -.00000051  00000+0  00000+0 0  9995
2 47719  63.2131  70.5059 7250064 269.5381  15.1604  2.00617949 36981
FENGYUN 3E              
1 49008U 21062A   26079.27216292  .00000373  00000+0  19665-3 0  9999
2 49008  98.7510  83.6674 0001806  21.9742 338.1512 14.19896417243964
GOES 18                 
1 51850U 22021A   26079.24609360  .00000099  00000+0  00000+0 0  9996
2 51850   0.0450  21.4004 0000554  32.8264  75.1455  1.00273066  5704
NOAA 21 (JPSS-2)        
1 54234U 22150A   26079.29478104  .00000052  00000+0  45727-4 0  9992
2 54234  98.7567  19.4398 0002785  87.7327 272.4168 14.19554756173932
METEOSAT-12 (MTG-I1)    
1 54743U 22170C   26079.20180675 -.00000005  00000+0  00000+0 0  9992
2 54743   0.7197  23.9111 0001843 288.1407 297.9737  1.00271097 12084
TIANMU-1 03             
1 55973U 23039A   26079.24615368  .00011342  00000+0  24611-3 0  9992
2 55973  97.5186 249.9256 0003813  72.4703 287.6962 15.44554790167099
TIANMU-1 04             
1 55974U 23039B   26079.26675933  .00016443  00000+0  35055-3 0  9990
2 55974  97.5118 249.1042 0004381  66.3646 293.8062 15.44980491167102
TIANMU-1 05             
1 55975U 23039C   26079.28793972  .00011351  00000+0  24677-3 0  9998
2 55975  97.5164 249.6162 0003898  90.6410 269.5285 15.44495831167086
TIANMU-1 06             
1 55976U 23039D   26079.26637610  .00012105  00000+0  25855-3 0  9990
2 55976  97.5174 250.1440 0004098  84.7438 275.4278 15.45002720167104
FENGYUN 3G              
1 56232U 23055A   26079.25485477  .00029481  00000+0  47813-3 0  9998
2 56232  49.9920  84.5734 0005588 339.4695  20.6047 15.52446868166189
METEOR-M2 3             
1 57166U 23091A   26079.28673113  .00000000  00000+0  18887-4 0  9990
2 57166  98.6191 136.0427 0005022  75.2884 284.8852 14.24038681141861
TIANMU-1 07             
1 57399U 23101A   26075.65195713  .00005925  00000+0  21140-3 0  9998
2 57399  97.2716 128.4459 0005009 119.2908 240.8834 15.29238470147501
TIANMU-1 08             
1 57400U 23101B   26078.69619259  .00000235  00000+0  10822-4 0  9999
2 57400  97.2697 131.2008 0006031 100.1142 260.0780 15.29197771147961
TIANMU-1 09             
1 57401U 23101C   26078.61365741  .00005500  00000+0  19652-3 0  9995
2 57401  97.2650 130.5874 0005409 114.9753 245.2050 15.29221744147955
TIANMU-1 10             
1 57402U 23101D   26077.66550569  .00005873  00000+0  20876-3 0  9997
2 57402  97.2732 130.6151 0007268 109.5432 250.6594 15.29352723147804
FENGYUN 3F              
1 57490U 23111A   26079.25791209  .00000046  00000+0  41937-4 0  9999
2 57490  98.6903 150.9000 0001055  77.6583 282.4712 14.19921769136245
ARKTIKA-M 2             
1 58584U 23198A   26064.07652728  .00000150  00000+0  00000+0 0  9992
2 58584  63.2186 165.9003 6877723 267.7621  18.8474  2.00612038 16239
TIANMU-1 11             
1 58645U 23205A   26079.29806686  .00005675  00000+0  22324-3 0  9997
2 58645  97.3529 102.2767 0007783 328.7620  31.3155 15.26015104123967
TIANMU-1 12             
1 58646U 23205B   26079.26541509  .00004740  00000+0  18743-3 0  9997
2 58646  97.3517 102.0206 0005678 311.2002  48.8747 15.25941437123947
TIANMU-1 13             
1 58647U 23205C   26079.29596015  .00004675  00000+0  18462-3 0  9998
2 58647  97.3545 102.2943 0005692 286.3317  73.7296 15.25992831123946
TIANMU-1 14             
1 58648U 23205D   26079.28069966  .00005897  00000+0  23225-3 0  9998
2 58648  97.3480 101.5385 0006471 291.8681  68.1869 15.25970754123942
TIANMU-1 19             
1 58660U 23208A   26079.25989398  .00006989  00000+0  24299-3 0  9997
2 58660  97.4399 195.2600 0003745 266.9561  93.1251 15.30038224123729
TIANMU-1 20             
1 58661U 23208B   26079.30136711  .00006938  00000+0  23252-3 0  9999
2 58661  97.4340 195.8459 0005875 279.4929  80.5648 15.31226519123814
TIANMU-1 21             
1 58662U 23208C   26079.28584904  .00010496  00000+0  32866-3 0  9993
2 58662  97.4396 198.1453 0005774 272.7130  87.3452 15.33275112123930
TIANMU-1 22             
1 58663U 23208D   26079.28022963  .00006418  00000+0  22614-3 0  9995
2 58663  97.4395 195.2844 0002438 303.8420  56.2588 15.29640550123734
TIANMU-1 15             
1 58700U 24004A   26079.27839567  .00004831  00000+0  19082-3 0  9999
2 58700  97.4670 265.5040 0005879 308.5271  51.5440 15.25976360122213
TIANMU-1 16             
1 58701U 24004B   26079.26164145  .00005172  00000+0  20393-3 0  9998
2 58701  97.4613 264.8029 0004371 314.7769  45.3113 15.26012496122217
TIANMU-1 17             
1 58702U 24004C   26079.24372919  .00005041  00000+0  19865-3 0  9994
2 58702  97.4643 265.2436 0003612 318.1147  41.9814 15.26047402122207
TIANMU-1 18             
1 58703U 24004D   26079.29484836  .00005947  00000+0  23419-3 0  9997
2 58703  97.4661 265.5078 0003011 319.1111  40.9901 15.25994579122210
INSAT-3DS               
1 58990U 24033A   26077.82198649 -.00000154  00000+0  00000+0 0  9991
2 58990   0.0146 219.4744 0002115 145.8603 189.0117  1.00270722 46166
METEOR-M2 4             
1 59051U 24039A   26079.27086073  .00000005  00000+0  21797-4 0  9999
2 59051  98.6922  39.7309 0008151  69.9003 290.3051 14.22418775106627
GOES 19                 
1 60133U 24119A   26079.17892066 -.00000246  00000+0  00000+0 0  9994
2 60133   0.0403  15.0860 0000833  22.0432 129.8042  1.00270821  6079
FENGYUN 3H              
1 65815U 25219A   26079.25406308  .00000047  00000+0  42590-4 0  9990
2 65815  98.6699  21.7862 0001045  58.5677 301.5602 14.19935191 24767
OSCAR 7 (AO-7)          
1 07530U 74089B   26079.24844046 -.00000054  00000+0 -46841-4 0  9996
2 07530 101.9963  91.5521 0011917 301.6143 120.8045 12.53696600349370
PHASE 3B (AO-10)        
1 14129U 83058B   26077.56028265  .00000122  00000+0  00000+0 0  9990
2 14129  25.9170 234.7574 6043564  90.5700 334.5381  2.05871844293622
UOSAT 2 (UO-11)         
1 14781U 84021B   26079.14620097  .00001207  00000+0  12916-3 0  9990
2 14781  97.7966  45.7787 0009026 113.6110 246.6057 14.90541095243866
LUSAT (LO-19)           
1 20442U 90005G   26079.29585138  .00000117  00000+0  58477-4 0  9994
2 20442  98.8928  98.6229 0012669 105.7470 254.5112 14.34092251889659
EYESAT A (AO-27)        
1 22825U 93061C   26079.12586962  .00000095  00000+0  53155-4 0  9997
2 22825  98.6960 146.5427 0008412   9.6967 350.4376 14.30916349694265
ITAMSAT (IO-26)         
1 22826U 93061D   26079.13173801  .00000109  00000+0  58024-4 0  9999
2 22826  98.6907 146.4571 0008584 352.7974   7.3084 14.31340780694575
RADIO ROSTO (RS15)      
1 23439U 94085A   26079.16083759 -.00000049  00000+0 -17821-3 0  9996
2 23439  64.8135  87.1960 0153043  20.0699 340.6157 11.27583837285863
JAS-2 (FO-29)           
1 24278U 96046B   26079.14504285 -.00000001  00000+0  36868-4 0  9997
2 24278  98.5364 300.1496 0349384 327.6337  30.3791 13.53269623461122
TECHSAT 1B (GO-32)      
1 25397U 98043D   26079.20643815  .00000054  00000+0  43473-4 0  9996
2 25397  99.0040  69.7374 0002322 102.4035 257.7403 14.24408896438661
ISS (ZARYA)             
1 25544U 98067A   26079.16224066  .00008474  00000+0  16520-3 0  9990
2 25544  51.6345  20.5881 0006234 211.0869 148.9751 15.48388697557957
PCSAT (NO-44)           
1 26931U 01043C   26079.24500877  .00000113  00000+0  73114-4 0  9990
2 26931  67.0492 114.3132 0006966 264.9471  95.0836 14.31917074277718
SAUDISAT 1C (SO-50)     
1 27607U 02058C   26079.27345972  .00001392  00000+0  18173-3 0  9997
2 27607  64.5526  44.0376 0075388 278.7204  80.5368 14.82824120251276
CUTE-1 (CO-55)          
1 27844U 03031E   26079.24199044  .00000285  00000+0  14241-3 0  9998
2 27844  98.6778  88.9100 0010756  85.0678 275.1729 14.24274529179012
CUBESAT XI-IV (CO-57)   
1 27848U 03031J   26078.97521558  .00000241  00000+0  12484-3 0  9999
2 27848  98.6807  88.4307 0010626 101.9233 258.3138 14.23568320178687
MOZHAETS 4 (RS22)       
1 27939U 03042A   26079.32723645  .00000357  00000+0  63579-4 0  9993
2 27939  98.3440 261.1850 0011107 184.5249 297.1379 14.73280236202464
CUBESAT XI-V            
1 28895U 05043F   26078.36614807  .00001633  00000+0  26590-3 0  9999
2 28895  98.2853 232.1743 0015159 128.4514 231.8056 14.72359943 88533
CUTE-1.7+APD II (CO-65) 
1 32785U 08021C   26079.19441649  .00004405  00000+0  28643-3 0  9996
2 32785  97.8224  58.8560 0008382 344.8186  15.2789 15.08510495971777
SEEDS II (CO-66)        
1 32791U 08021J   26079.25905913  .00013336  00000+0  46883-3 0  9998
2 32791  97.7521  73.1328 0000515 227.1111 133.0085 15.29499655973683
